IRIDIUM 156             
1 43576U 18061H   26177.74549682  .00000213  00000+0  68983-4 0  9992
2 43576  86.3954  52.7323 0002007  85.6539 274.4886 14.34218691414747
IRIDIUM 164             
1 43577U 18061J   26177.72646375  .00000089  00000+0  24629-4 0  9998
2 43577  86.3954  52.7807 0002237  90.3511 269.7941 14.34218110414782
IRIDIUM 159             
1 43578U 18061K   26177.69475095  .00000022  00000+0  83635-6 0  9995
2 43578  86.3947  52.7303 0002109  83.7283 276.4153 14.34217594414747
IRIDIUM 180             
1 43922U 19002A   26177.76401573 -.00000008  00000+0 -99652-5 0  9993
2 43922  86.3971 349.5932 0002123  89.2700 270.8739 14.34217266390368
IRIDIUM 176             
1 43923U 19002B   26177.74237831  .00000745  00000+0  11427-3 0  9994
2 43923  86.6094 349.5443 0002423  88.4016 271.7479 14.72226002400654
IRIDIUM 168             
1 43924U 19002C   26177.75766800  .00000071  00000+0  18432-4 0  9995
2 43924  86.3976 349.6732 0002236  90.4570 269.6882 14.34216534390348
IRIDIUM 173             
1 43925U 19002D   26177.74498778  .00000047  00000+0  97728-5 0  9990
2 43925  86.3972 349.5671 0002162  88.5487 271.5956 14.34217836390327
IRIDIUM 169             
1 43926U 19002E   26177.57271450  .00000241  00000+0  72238-4 0  9992
2 43926  86.4219  21.2686 0001677  82.4882 277.6507 14.38607360391571
IRIDIUM 172             
1 43927U 19002F   26177.73864382  .00000001  00000+0 -66540-5 0  9998
2 43927  86.3970 349.5777 0002134  89.4943 270.6497 14.34216783390331
IRIDIUM 175             
1 43928U 19002G   26177.70265457  .00000285  00000+0  78054-4 0  9999
2 43928  86.4517 286.5433 0003710 154.0348 206.1040 14.43617552400359
IRIDIUM 171             
1 43929U 19002H   26177.71961704 -.00000006  00000+0 -92048-5 0  9992
2 43929  86.3979 349.8930 0001976  93.7864 266.3558 14.34217432390320
IRIDIUM 170             
1 43930U 19002J   26177.74855536  .00000725  00000+0  11114-3 0  9991
2 43930  86.6093 349.5441 0002503  85.9444 274.2059 14.72226493400662
IRIDIUM 167             
1 43931U 19002K   26177.50396870 -.00000008  00000+0 -10041-4 0  9992
2 43931  86.3970 349.6984 0001893  97.0714 263.0697 14.34217427390298
IRIDIUM 181             
1 56726U 23068S   26177.60458450  .00000259  00000+0  70837-4 0  9994
2 56726  86.4491  52.8536 0002418  87.7025 272.4453 14.43310795163793
IRIDIUM 177             
1 56727U 23068T   26177.65166706  .00000988  00000+0  12702-3 0  9995
2 56727  86.1999 324.2954 0002981  96.3710 263.7850 14.80044839167765
IRIDIUM 174             
1 56728U 23068U   26177.73621520  .00000732  00000+0  11228-3 0  9994
2 56728  86.6101 349.6975 0002398  80.5201 279.6287 14.72233926167423
IRIDIUM 178             
1 56729U 23068V   26177.57310271  .00000949  00000+0  12145-3 0  9994
2 56729  86.6534  21.4368 0002558  88.9520 271.1995 14.80227471167755
IRIDIUM 179             
1 56730U 23068W   26177.56777522  .00000751  00000+0  95648-4 0  9992
2 56730  86.6837  30.4524 0003895 104.9413 255.2240 14.80131246167752
